ONEWEB-0461             
1 51649U 22012AD  25045.56700390  .00000044  00000+0  78898-4 0  9999
2 51649  87.9049 103.0024 0001841  97.9437 262.1903 13.17650231149676
ONEWEB-0463             
1 51650U 22012AE  25045.54843791  .00000008  00000+0 -13212-4 0  9992
2 51650  87.9053 103.0635 0001832 101.7683 258.3654 13.17650936149456
ONEWEB-0464             
1 51651U 22012AF  25045.49028516 -.00000454  00000+0 -13377-2 0  9993
2 51651  87.8904 133.4799 0002237 110.0876 250.0492 13.10371326145457
ONEWEB-0468             
1 51652U 22012AG  25045.49691886 -.00000509  00000+0 -14941-2 0  9999
2 51652  87.8904 133.4704 0001838 107.9369 252.1959 13.10373585145430
ONEWEB-0473             
1 51653U 22012AH  25045.48198657 -.00000358  00000+0 -10614-2 0  9992
2 51653  87.8905 133.4772 0002805 117.9693 242.1718 13.10370436145437
ONEWEB-0474             
1 51654U 22012AJ  25045.47369388  .00000252  00000+0  68484-3 0  9993
2 51654  87.8893 133.4533 0001993 113.4533 246.6804 13.10370065145422
ONEWEB-0475             
1 51655U 22012AK  25045.40838166  .00000132  00000+0  30762-3 0  9997
2 51655  87.9052 103.0708 0002095 123.3187 236.8145 13.17650416149451
ONEWEB-0490             
1 54113U 22138A   25045.48096221  .00000118  00000+0  26196-3 0  9994
2 54113  87.9154  41.8974 0001992  91.4038 268.7322 13.19727638112505
